NORAD_CAT_ID,OBJECT_NAME,OBJECT_TYPE,EPOCH,MEAN_MOTION,ECCENTRICITY,INCLINATION,RA_OF_ASC_NODE,ARG_OF_PERICENTER,MEAN_ANOMALY,BSTAR,MEAN_MOTION_DOT,MEAN_MOTION_DDOT,TLE_LINE0,TLE_LINE1,TLE_LINE2,SEMIMAJOR_AXIS,PERIOD,APOGEE,PERIGEE,DECAYED
52355.0,STARLINK-3877,PAYLOAD,2022-10-18 04:45:33,15.08830079,0.0002164,53.2181,358.9353,43.1324,316.9837,0.00013214,1.815e-05,0.0,0 STARLINK-3877,1 52355U 22045AA  22291.19829992  .00001815  00000-0  13214-3 0  9997,2 52355  53.2181 358.9353 0002164  43.1324 316.9837 15.08830079 28815,6917.911,95.438,541.273,538.279,0.0
52355.0,STARLINK-3877,PAYLOAD,2022-10-18 11:07:06,15.08822298,0.0002084,53.2194,357.7458,40.7776,319.3372,8.7781e-05,1.108e-05,0.0,0 STARLINK-3877,1 52355U 22045AA  22291.46326824  .00001108  00000-0  87781-4 0  9999,2 52355  53.2194 357.7458 0002084  40.7776 319.3372 15.08822298 28856,6917.934,95.439,541.241,538.3580000000002,0.0
52355.0,STARLINK-3877,PAYLOAD,2022-10-19 04:36:20,15.08839246,0.0002227,53.218,354.4752,45.8531,314.2644,2.373e-05,8.9e-07,0.0,0 STARLINK-3877,1 52355U 22045AA  22292.19190530  .00000089  00000-0  23730-4 0  9994,2 52355  53.2180 354.4752 0002227  45.8531 314.2644 15.08839246 28965,6917.8830000000025,95.438,541.288,538.207,0.0
52355.0,STARLINK-3877,PAYLOAD,2022-10-19 09:22:30,15.08834863,0.0002204,53.2172,353.5823,41.9792,318.1369,-1.9188e-06,-3.19e-06,0.0,0 STARLINK-3877,1 52355U 22045AA  22292.39062881 -.00000319  00000-0 -19188-5 0  9994,2 52355  53.2172 353.5823 0002204  41.9792 318.1369 15.08834863 28996,6917.896,95.438,541.286,538.236,0.0
52355.0,STARLINK-3877,PAYLOAD,2022-10-19 14:08:39,15.08838737,0.0002255999999999,53.2178,352.6909,39.5048,320.6108,-1.7383e-05,-5.65e-06,0.0,0 STARLINK-3877,1 52355U 22045AA  22292.58934741 -.00000565  00000-0 -17383-4 0  9995,2 52355  53.2178 352.6909 0002256  39.5048 320.6108 15.08838737 29029,6917.884,95.438,541.31,538.189,0.0
52355.0,STARLINK-3877,PAYLOAD,2022-10-20 10:48:39,15.08840395,0.0002233,53.217,348.8246,33.2858,326.8274,3.2124e-05,2.23e-06,0.0,0 STARLINK-3877,1 52355U 22045AA  22293.45046294  .00000223  00000-0  32124-4 0  9998,2 52355  53.2170 348.8246 0002233  33.2858 326.8274 15.08840395 29156,6917.879,95.438,541.289,538.1990000000002,0.0
52355.0,STARLINK-3877,PAYLOAD,2022-10-20 20:20:58,15.08840962,0.0002201,53.2171,347.0408,35.9612,324.1528,6.7976e-05,7.94e-06,0.0,0 STARLINK-3877,1 52355U 22045AA  22293.84790133  .00000794  00000-0  67976-4 0  9995,2 52355  53.2171 347.0408 0002201  35.9612 324.1528 15.08840962 29210,6917.877,95.437,541.265,538.22,0.0
52355.0,STARLINK-3877,PAYLOAD,2022-10-21 10:39:27,15.08838747,0.0002208,53.2187,344.3662,37.337,322.7776,4.1137e-05,3.66e-06,0.0,0 STARLINK-3877,1 52355U 22045AA  22294.44406328  .00000366  00000-0  41137-4 0  9998,2 52355  53.2187 344.3662 0002208  37.3370 322.7776 15.08838747 29300,6917.884,95.438,541.2769999999998,538.222,0.0
52355.0,STARLINK-3877,PAYLOAD,2022-10-21 12:14:50,15.08839869,0.0002208,53.2183,344.0686,39.5705,320.5448,4.685e-05,4.57e-06,0.0,0 STARLINK-3877,1 52355U 22045AA  22294.51030232  .00000457  00000-0  46850-4 0  9991,2 52355  53.2183 344.0686 0002208  39.5705 320.5448 15.08839869 29314,6917.880999999999,95.438,541.273,538.2180000000002,0.0
52355.0,STARLINK-3877,PAYLOAD,2022-10-22 12:05:37,15.08831511,0.0002089999999999,53.218,339.6081,40.9429,319.172,-6.9751e-05,-1.398e-05,0.0,0 STARLINK-3877,1 52355U 22045AA  22295.50390940 -.00001398  00000-0 -69751-4 0  9998,2 52355  53.2180 339.6081 0002090  40.9429 319.1720 15.08831511 29467,6917.906,95.438,541.217,538.325,0.0
52355.0,STARLINK-3877,PAYLOAD,2022-10-22 20:02:33,15.08837907,0.0002313,53.2178,338.1209,38.3573,321.7584,-4.6152e-05,-1.023e-05,0.0,0 STARLINK-3877,1 52355U 22045AA  22295.83510457 -.00001023  00000-0 -46152-4 0  9996,2 52355  53.2178 338.1209 0002313  38.3573 321.7584 15.08837907 29517,6917.887,95.438,541.352,538.1519999999998,0.0
52355.0,STARLINK-3877,PAYLOAD,2022-10-23 11:56:23,15.08851746,0.0002287,53.2171,335.1458,35.3263,324.788,8.2781e-05,1.03e-05,0.0,0 STARLINK-3877,1 52355U 22045AA  22296.49748988  .00001030  00000-0  82781-4 0  9995,2 52355  53.2171 335.1458 0002287  35.3263 324.7880 15.08851746 29616,6917.844,95.437,541.2919999999998,538.127,0.0
52355.0,STARLINK-3877,PAYLOAD,2022-10-23 19:53:19,15.08845958,0.0002345,53.217,333.6589,35.2689,324.8458,1.0844000000000003e-05,-1.16e-06,0.0,0 STARLINK-3877,1 52355U 22045AA  22296.82869419 -.00000116  00000-0  10844-4 0  9991,2 52355  53.2170 333.6589 0002345  35.2689 324.8458 15.08845958 29664,6917.861999999999,95.437,541.349,538.105,0.0
52355.0,STARLINK-3877,PAYLOAD,2022-10-24 10:11:48,15.08829866,0.0002233,53.218,330.9842,32.3838,327.7290000000001,-8.4306e-05,-1.629e-05,0.0,0 STARLINK-3877,1 52355U 22045AA  22297.42486551 -.00001629  00000-0 -84306-4 0  9995,2 52355  53.2180 330.9842 0002233  32.3838 327.7290 15.08829866 29753,6917.911,95.438,541.321,538.232,0.0
52355.0,STARLINK-3877,PAYLOAD,2022-10-25 02:05:41,15.08818295,0.0002431,53.2171,328.0089,40.0069,320.1102,-0.00022807,-3.914e-05,0.0,0 STARLINK-3877,1 52355U 22045AA  22298.08728685 -.00003914  00000-0 -22807-3 0  9991,2 52355  53.2171 328.0089 0002431  40.0069 320.1102 15.08818295 29850,6917.946999999999,95.439,541.493,538.13,0.0
52355.0,STARLINK-3877,PAYLOAD,2022-10-25 08:27:13,15.08829238,0.0002130999999999,53.2193,326.8169,37.3656,322.7484,-0.00013774,-2.479e-05,0.0,0 STARLINK-3877,1 52355U 22045AA  22298.35223988 -.00002479  00000-0 -13774-3 0  9995,2 52355  53.2193 326.8169 0002131  37.3656 322.7484 15.08829238 29891,6917.913000000001,95.438,541.252,538.304,0.0
52355.0,STARLINK-3877,PAYLOAD,2022-10-25 11:37:59,15.08836523,0.000227,53.2167,326.2244,34.9507,325.1634,-7.0533e-05,-1.411e-05,0.0,0 STARLINK-3877,1 52355U 22045AA  22298.48471636 -.00001411  00000-0 -70533-4 0  9996,2 52355  53.2167 326.2244 0002270  34.9507 325.1634 15.08836523 29914,6917.891,95.438,541.326,538.186,0.0
52355.0,STARLINK-3877,PAYLOAD,2022-10-26 05:07:13,15.08838975,0.0002227,53.2166,322.9531,29.5097,330.6021,4.0163e-05,3.51e-06,0.0,0 STARLINK-3877,1 52355U 22045AA  22299.21334858  .00000351  00000-0  40163-4 0  9998,2 52355  53.2166 322.9531 0002227  29.5097 330.6021 15.08838975 30029,6917.884,95.438,541.289,538.2080000000002,0.0
52355.0,STARLINK-3877,PAYLOAD,2022-10-26 11:28:45,15.08839954,0.0002443,53.2164,321.7649,30.0627,330.0505,0.00014146,1.964e-05,0.0,0 STARLINK-3877,1 52355U 22045AA  22299.47830359  .00001964  00000-0  14146-3 0  9995,2 52355  53.2164 321.7649 0002443  30.0627 330.0505 15.08839954 30063,6917.880999999999,95.438,541.436,538.055,0.0
52355.0,STARLINK-3877,PAYLOAD,2022-10-27 04:57:59,15.08937579,0.0002041,53.2163,318.4933,18.4681,341.6385,-0.001129,-0.0001826,0.0,0 STARLINK-3877,1 52355U 22045AA  22300.20693855 -.00018260  00000-0 -11290-2 0  9992,2 52355  53.2163 318.4933 0002041  18.4681 341.6385 15.08937579 30173,6917.581999999999,95.431,540.859,538.035,0.0
52355.0,STARLINK-3877,PAYLOAD,2022-10-27 08:08:46,15.088262099999998,0.0002415,53.216,317.8982,36.0482,324.0672,0.00030603,4.584e-05,0.0,0 STARLINK-3877,1 52355U 22045AA  22300.33943133  .00004584  00000-0  30603-3 0  9995,2 52355  53.2160 317.8982 0002415  36.0482 324.0672 15.08826210 30192,6917.9230000000025,95.438,541.4580000000002,538.117,0.0
52355.0,STARLINK-3877,PAYLOAD,2022-10-27 17:41:05,15.08847195,0.0002438,53.2165,316.1143,34.2457,325.8692,8.8734e-05,1.124e-05,0.0,0 STARLINK-3877,1 52355U 22045AA  22300.73686451  .00001124  00000-0  88734-4 0  9992,2 52355  53.2165 316.1143 0002438  34.2457 325.8692 15.08847195 30258,6917.858,95.437,541.41,538.0369999999998,0.0
52355.0,STARLINK-3877,PAYLOAD,2022-10-28 09:34:56,15.08843994,0.0002485999999999,53.2164,313.141,34.8464,325.269,-6.1844e-05,-1.273e-05,0.0,0 STARLINK-3877,1 52355U 22045AA  22301.39926883 -.00001273  00000-0 -61844-4 0  9991,2 52355  53.2164 313.1410 0002486  34.8464 325.2690 15.08843994 30354,6917.868,95.437,541.453,538.013,0.0
52355.0,STARLINK-3877,PAYLOAD,2022-10-28 17:31:52,15.08843837,0.0002504,53.2164,311.6542,35.4497,324.6662,-7.208199999999999e-05,-1.436e-05,0.0,0 STARLINK-3877,1 52355U 22045AA  22301.73046807 -.00001436  00000-0 -72082-4 0  9995,2 52355  53.2164 311.6542 0002504  35.4497 324.6662 15.08843837 30401,6917.869000000002,95.437,541.466,538.001,0.0
52355.0,STARLINK-3877,PAYLOAD,2022-10-29 04:39:33,15.08848253,0.0002472,53.2159,309.572,34.1376,325.9775,-1.5781e-05,-5.400000000000002e-06,0.0,0 STARLINK-3877,1 52355U 22045AA  22302.19414109 -.00000540  00000-0 -15781-4 0  9998,2 52355  53.2159 309.5720 0002472  34.1376 325.9775 15.08848253 30478,6917.855,95.437,541.43,538.01,0.0
52355.0,STARLINK-3877,PAYLOAD,2022-10-29 17:22:38,15.0885378,0.0002441999999999,53.2159,307.193,33.14,326.9745,2.4838e-05,1.07e-06,0.0,0 STARLINK-3877,1 52355U 22045AA  22302.72405306  .00000107  00000-0  24838-4 0  9996,2 52355  53.2159 307.1930 0002442  33.1400 326.9745 15.08853780 30557,6917.8380000000025,95.437,541.393,538.014,0.0
52355.0,STARLINK-3877,PAYLOAD,2022-10-30 12:27:15,15.08863637,0.0002475,53.2166,303.6262,43.4914,316.6273,-0.00017268,-3.038e-05,0.0,0 STARLINK-3877,1 52355U 22045AA  22303.51892959 -.00003038  00000-0 -17268-3 0  9994,2 52355  53.2166 303.6262 0002475  43.4914 316.6273 15.08863637 30671,6917.808000000001,95.436,541.385,537.961,0.0
52355.0,STARLINK-3877,PAYLOAD,2022-10-30 17:13:26,15.08827974,0.000248,53.2159,302.7323,36.405,323.7111,-7.002600000000001e-05,-1.402e-05,0.0,0 STARLINK-3877,1 52355U 22045AA  22303.71766839 -.00001402  00000-0 -70026-4 0  9998,2 52355  53.2159 302.7323 0002480  36.4050 323.7111 15.08827974 30708,6917.917,95.438,541.498,538.067,0.0
52355.0,STARLINK-3877,PAYLOAD,2022-10-31 09:07:18,15.08824678,0.0002437,53.2167,299.7592,36.3597,323.7561,-0.00010379,-1.939e-05,0.0,0 STARLINK-3877,1 52355U 22045AA  22304.38007517 -.00001939  00000-0 -10379-3 0  9992,2 52355  53.2167 299.7592 0002437  36.3597 323.7561 15.08824678 30805,6917.927,95.439,541.4780000000002,538.106,0.0
